GLOBALSTAR M063 [+]     
1 26081U 00008A   23286.72433767 -.00000066  00000+0  23769-3 0  9997
2 26081  51.9947 284.5445 0004292 220.9232 309.9243 11.86145589 84890
GLOBALSTAR M062 [-]     
1 26082U 00008B   23286.86101485 -.00000046  00000+0  37244-3 0  9993
2 26082  51.9831  96.3734 0006027 240.5605 267.1444 12.43418806420445
GLOBALSTAR M060 [-]     
1 26083U 00008C   23286.44980505  .00000085  00000+0  17518-2 0  9999
2 26083  52.0036 330.9112 0003179 325.0285 138.4222 12.17614341 77726
GLOBALSTAR M064 [-]     
1 26084U 00008D   23286.55655965 -.00000088  00000+0 -71018-4 0  9993
2 26084  52.0059  31.0362 0000964 340.3595  19.7200 11.88510277 94255
GLOBALSTAR M065 [+]     
1 31571U 07020A   23286.77963153 -.00000026  00000+0  43362-3 0  9997
2 31571  51.9887 290.1495 0010455  34.0726 136.6282 12.61954608756080
GLOBALSTAR M069 [+]     
1 31573U 07020C   23286.67489100 -.00000081  00000+0  12881-3 0  9996
2 31573  51.9942 246.6160 0000400  23.3092 147.1960 12.62283003757193
GLOBALSTAR M072 [+]     
1 31574U 07020D   23286.90868752 -.00000085  00000+0  10359-3 0  9999
2 31574  52.0103 341.6235 0000487 109.4029  61.5537 12.62266249755498
GLOBALSTAR M071 [P]     
1 31576U 07020F   23286.30062125 -.00000089  00000+0  80391-4 0  9993
2 31576  52.0053 252.7297 0000126 239.6281 267.2560 12.62269907418334
